STARLINK-2022           
1 47643U 21012Z   24057.46319911  .00020535  00000+0  13925-2 0  9998
2 47643  53.0537 143.6045 0001291 101.3193 258.7941 15.06425516168391
